COSMOS 1933             
1 18958U 88020A   26062.52768649  .00005261  00000+0  25799-3 0  9990
2 18958  82.5095 257.0105 0003381 205.7954 154.3112 15.17917348 49296
SL-3 R/B                
1 19046U 88032B   26062.74136771  .00007262  00000+0  33954-3 0  9996
2 19046  97.5180  46.0136 0024096 253.8032 106.0551 15.19823414 51200
SL-16 R/B               
1 19120U 88039B   26062.49774189  .00000081  00000+0  60980-4 0  9991
2 19120  71.0130  81.6418 0022412 343.4793  16.5599 14.19615601957504
COSMOS 1953             
1 19210U 88050A   26062.73357008  .00011265  00000+0  40539-3 0  9991
2 19210  82.5118 164.2354 0012197 141.9070 218.3034 15.28394735 36879
SL-8 R/B                
1 19257U 88053B   26062.61763806  .00000334  00000+0  11675-3 0  9993
2 19257  74.0469 123.6591 0021290 303.8485 168.0525 14.38911518975726
COSMOS 1975             
1 19573U 88093A   26062.63457749  .00010163  00000+0  37065-3 0  9998
2 19573  82.5198 123.7633 0011617 184.2896 175.8246 15.27960127 18483
SL-14 R/B               
1 19574U 88093B   26062.47691127  .00000752  00000+0  83655-4 0  9991
2 19574  82.5293  47.8765 0022117  60.9018  59.3481 14.85647444    97
SL-16 R/B               
1 19650U 88102B   26062.68904779 -.00000015  00000+0  16652-4 0  9996
2 19650  71.0000 164.1221 0013579  10.7276 349.4134 14.16149412926048
INTERCOSMOS 24          
1 20261U 89080A   26062.60709607  .00000840  00000+0  24957-3 0  9998
2 20261  82.6033 108.3653 1186833 306.9522  42.8481 12.59546815666032
SL-14 R/B               
1 20262U 89080C   26062.71436847  .00000805  00000+0  23977-3 0  9996
2 20262  82.5971 177.0209 1230342 198.4041 156.8533 12.50484712659403
DELTA 1 R/B             
1 20323U 89089B   26062.55092514  .00000483  00000+0  12780-3 0  9996
2 20323  97.0709 270.9659 0070090 141.0935 219.5338 14.50657398894843
ARIANE 40 R/B           
1 20443U 90005H   26062.69830414  .00000356  00000+0  12690-3 0  9992
2 20443  98.3096 123.5380 0009484 217.1526 142.9007 14.39865829891940
